STARLINK-32245          
1 62133U 24222V   26068.52852592  .00022535  00000+0  82597-3 0  9997
2 62133  42.9989 137.1483 0001484 283.7594  76.3092 15.27577866 72886
TEVEL2-3                
1 63218U 25052J   26068.64540225  .00020365  00000+0  69446-3 0  9991
2 63218  97.3994 324.7775 0004761 105.7353 254.4413 15.30377031 54855
